STARLINK-2655           
1 48449U 21040X   26068.56559856 -.00000433  00000+0 -24980-5 0  9996
2 48449  53.1635 178.7122 0001428  91.6237 268.4927 15.30196580266667
TEVEL2-1                
1 63217U 25052H   26068.64782323  .00020683  00000+0  70600-3 0  9994
2 63217  97.3991 324.7682 0004767 104.8919 255.2849 15.30341923 54855
